DELTA 2 R/B(1)          
1 20453U 90008B   26101.30712080  .00046535  00000+0  46979-3 0  9992
2 20453  35.6034 320.0792 0076093 205.9628 153.7281 15.60564480931220
COSMOS 2058             
1 20465U 90010A   26101.48446161  .00002974  00000+0  17319-3 0  9996
2 20465  82.4723  15.1173 0008756 213.6314 146.4361 15.11643173947196
SL-14 R/B               
1 20466U 90010B   26101.39819676  .00000410  00000+0  46752-4 0  9999
2 20466  82.5019 236.6588 0019596 187.8973 172.1936 14.83603041933336
SL-14 R/B               
1 20511U 90018B   26101.51487108  .00000311  00000+0  36028-4 0  9998
2 20511  82.5245 192.4179 0015805 349.1263  10.9607 14.82178038927448
HST                     
1 20580U 90037B   26101.49678816  .00006116  00000+0  19678-3 0  9990
2 20580  28.4727 176.1109 0002351 124.7983 235.2834 15.30022712778346
SL-16 R/B               
1 20625U 90046B   26101.42744977 -.00000214  00000+0 -85652-4 0  9996
2 20625  70.9996 229.1537 0016593 257.1434 102.7835 14.15018532853020
COSMOS 2084             
1 20663U 90055A   26101.39577546  .00002060  00000+0  15490-3 0  9991
2 20663  62.7899 224.0090 0011820 202.0139 158.0455 15.05854901941242
SL-6 R/B(2)             
1 20666U 90055D   26101.48998601  .00001247  00000+0  10426-3 0  9993
2 20666  62.7808 142.2947 0030148 354.1336   5.9406 15.03751967943120
SL-8 R/B                
1 20775U 90078B   26101.42391580  .00011133  00000+0  32897-3 0  9997
2 20775  82.9044 221.8473 0356829 263.4514  92.5975 14.90002084814171
SL-8 R/B                
1 21088U 91006B   26101.37326462  .00000106  00000+0  90963-4 0  9995
2 21088  82.9420 145.7436 0021142 305.7414  65.2110 13.77500236768572
OKEAN-3                 
1 21397U 91039A   26101.45913053  .00001851  00000+0  12829-3 0  9993
2 21397  82.5156 305.0866 0013565 214.6581 145.3763 15.05005924869964
COSMOS 2151             
1 21422U 91042A   26101.49996241  .00001548  00000+0  12142-3 0  9991
2 21422  82.4968  52.0189 0011086 315.0445  44.9880 15.00257941868114
SL-14 R/B               
1 21423U 91042B   26101.50740584  .00000314  00000+0  36610-4 0  9998
2 21423  82.4960 189.4179 0018238 130.3101 229.9710 14.81863488857936
ERS-1                   
1 21574U 91050A   26101.50623132  .00000249  00000+0  94150-4 0  9993
2 21574  98.7850 120.5623 0033121 104.6091 255.8772 14.39475797820459
ARIANE 40 R/B           
1 21610U 91050F   26101.13241417  .00000248  00000+0  86744-4 0  9994
2 21610  98.1947 152.1405 0002682   1.2199 358.8997 14.42918680823676
INTERCOSMOS 25          
1 21819U 91086A   26101.50967054  .00000876  00000+0  16593-3 0  9998
2 21819  82.5996 290.1618 1486074  46.2109 325.2637 12.12110021500667
SL-8 R/B                
1 21876U 92008B   26101.44425303  .00000038  00000+0  22938-4 0  9996
2 21876  82.9256 243.4081 0035475  44.9322  15.1365 13.75970172713923
SL-8 R/B                
1 21938U 92020B   26101.43599840 -.00000018  00000+0 -33844-4 0  9994
2 21938  82.9279 129.4436 0028473 203.7645 272.5028 13.75550264705637
USA 81                  
1 21949U 92023A   26101.42195119  .00000154  00000+0  49805-4 0  9992
2 21949  85.0034 112.5474 0001298  77.8787 282.2551 14.32379039 99470
COSMOS 2219             
1 22219U 92076A   26101.27274291  .00000006  00000+0  27880-4 0  9998
2 22219  71.0592 309.9581 0017451 156.5537 203.6385 14.14088135722987
SL-16 R/B               
1 22220U 92076B   26101.47465177  .00000263  00000+0  15501-3 0  9998
2 22220  70.9975 119.3148 0011296  36.9612 125.4411 14.16864294726479
COSMOS 2221             
1 22236U 92080A   26101.53965947  .00001781  00000+0  15473-3 0  9991
2 22236  82.5024 247.6045 0015653  83.4815 276.8189 14.96351318785704
SL-16 R/B               
1 22285U 92093B   26101.24767851 -.00000215  00000+0 -85845-4 0  9995
2 22285  71.0206 295.9190 0006572 261.6749  98.3629 14.15454502717763
COSMOS 2228             
1 22286U 92094A   26101.53395730  .00001866  00000+0  15793-3 0  9997
2 22286  82.5204 205.8656 0017830 186.9707 173.1271 14.97371090780976
SL-16 R/B               
1 22566U 93016B   26101.43274348  .00000161  00000+0  10700-3 0  9993
2 22566  71.0067 146.4151 0012593 272.7751  87.1931 14.15313053706803
COSMOS 2242             
1 22626U 93024A   26101.39679041  .00001799  00000+0  15494-3 0  9996
2 22626  82.5186 235.4244 0016037 190.5697 169.5190 14.96703625785282
SL-16 R/B               
1 22803U 93059B   26101.50886698  .00000203  00000+0  12427-3 0  9994
2 22803  70.9899 301.9189 0016582 167.5491 192.6046 14.17238404684184
ARIANE 40 R/B           
1 22830U 93061H   26101.44890250  .00000145  00000+0  68877-4 0  9995
2 22830  98.4860 169.6804 0010796 180.9077 179.2089 14.32879197698797
COSMOS 2278             
1 23087U 94023A   26101.41350179  .00000257  00000+0  15873-3 0  9998
2 23087  71.0502 106.6332 0009609 326.5295  33.5219 14.14377316649430
SL-16 R/B               
1 23088U 94023B   26101.44518455 -.00000147  00000+0 -51309-4 0  9990
2 23088  71.0031   2.0986 0005649 257.7882 102.2608 14.15020117650724
SL-16 R/B               
1 23343U 94074B   26101.31638610  .00000326  00000+0  50214-4 0  9993
2 23343  97.7059 130.8055 0008007 110.9794 259.5540 14.79446274692074
SL-16 R/B               
1 23405U 94077B   26101.48469669  .00000008  00000+0  28782-4 0  9991
2 23405  70.9811 283.4938 0001240 171.9989 188.1154 14.15566721620879
ARIANE 40+ R/B          
1 23561U 95021B   26101.46993399  .00000194  00000+0  75820-4 0  9995
2 23561  98.4444 172.4993 0007556  51.9141 319.7914 14.39796800623968
SL-16 R/B               
1 23705U 95058B   26101.42263014  .00000296  00000+0  17571-3 0  9996
2 23705  71.0186 111.5336 0010518  65.7874 294.4347 14.15500297572487
SL-16 R/B               
1 24298U 96051B   26101.46036461  .00000052  00000+0  54829-4 0  9994
2 24298  70.7578 105.8759 0012757  92.9488 267.3091 14.12424603526275
ORBVIEW 2 (SEASTAR)     
1 24883U 97037A   26101.45638719  .00000208  00000+0  88411-4 0  9999
2 24883  98.8624 266.6462 0001682 352.6008   7.5151 14.35518728513177
SL-16 R/B               
1 25400U 98043G   26101.42762648  .00000042  00000+0  36619-4 0  9998
2 25400  98.8306  55.0345 0008771 281.2504  78.7689 14.26057605443657
SL-16 R/B               
1 25407U 98045B   26101.48810475  .00000269  00000+0  15975-3 0  9997
2 25407  71.0087 112.6004 0008655 321.3418  38.7085 14.16197216431741
ISS (ZARYA)             
1 25544U 98067A   26101.48935997  .00006038  00000+0  11816-3 0  9990
2 25544  51.6326 270.1822 0006432 299.5706  60.4641 15.48873216561413
CZ-4B R/B               
1 25732U 99025C   26101.56172248  .00000030  00000+0  35375-4 0  9998
2 25732  98.6562 145.0542 0036039 249.6841 277.5553 14.18272068392820
OKEAN-O                 
1 25860U 99039A   26101.43416882  .00000452  00000+0  66013-4 0  9997
2 25860  97.9377 160.9816 0001078 113.2365 246.8960 14.80389067439235
SL-16 R/B               
1 25861U 99039B   26101.11319930  .00000466  00000+0  65831-4 0  9991
2 25861  97.9901 160.1501 0015555 147.9125 212.3038 14.81778333441668
DELTA 2 R/B             
1 25876U 99041E   26101.50049610  .00000710  00000+0  15400-3 0  9996
2 25876  51.7603 170.2063 0502590  85.1841 280.6268 14.11912433367668
HELIOS 1B               
1 25977U 99064A   26101.46747118  .00001284  00000+0  14689-3 0  9991
2 25977  98.1661   4.6698 0001076  37.7306 322.3985 14.87830377690135
TERRA                   
1 25994U 99068A   26101.53420287  .00000320  00000+0  74166-4 0  9994
2 25994  97.9527 153.7028 0003655  85.0319  51.4110 14.61051058399870
SL-16 R/B               
1 26070U 00006B   26101.51204759 -.00000226  00000+0 -90485-4 0  9995
2 26070  71.0046  28.8204 0014840 137.8928 222.3338 14.15830614353203
TITAN 4B R/B            
1 26474U 00047B   26101.55713618  .00002371  00000+0  15177-3 0  9996
2 26474  67.9889 308.0694 0041099 357.4085   2.6844 15.09854200397879
ENVISAT                 
1 27386U 02009A   26101.44021100  .00000081  00000+0  40024-4 0  9991
2 27386  98.3779  54.2690 0001166  83.2856  27.5991 14.39048790263888
IDEFIX & ARIANE 42P R/B 
1 27422U 02021B   26101.42789051  .00000213  00000+0  97285-4 0  9998
2 27422  98.5903  39.6505 0012994  90.6862 269.5809 14.31049474248704
AQUA                    
1 27424U 02022A   26101.53635838  .00000740  00000+0  15730-3 0  9995
2 27424  98.4226  69.5137 0001682 110.5237 315.9439 14.62054916273531
CZ-4B R/B               
1 27432U 02024C   26101.10842872  .00000031  00000+0  38993-4 0  9997
2 27432  98.8772 154.3413 0049088 291.3526  97.2045 14.14553717233822
MIDORI II (ADEOS-II)    
1 27597U 02056A   26101.42562484  .00000252  00000+0  11691-3 0  9997
2 27597  98.7822  60.1415 0000095  86.0152 274.1040 14.29311324214972
H-2A R/B                
1 27601U 02056E   26101.44718351  .00000280  00000+0  11217-3 0  9996
2 27601  98.3255  60.5772 0071375  64.4389  48.5264 14.33785288218801
CZ-4B R/B               
1 28059U 03049C   26101.46056574  .00000276  00000+0  74833-4 0  9990
2 28059  98.6899  97.6578 0049009 130.8146 229.7316 14.55050610191369
CZ-2C R/B               
1 28222U 04012C   26101.44141595  .00050155  00000+0  43665-3 0  9998
2 28222  97.7155 169.9295 0013914 184.4824 175.6314 15.68766148209406
SL-16 R/B               
1 28353U 04021B   26101.40907642  .00000153  00000+0  10423-3 0  9991
2 28353  71.0010 163.8315 0005997 327.4846  32.5906 14.14604567127466
CZ-4B R/B               
1 28415U 04035C   26101.36206924  .00006124  00000+0  21278-3 0  9999
2 28415  97.3451 135.2165 0030873 209.6625 150.2866 15.29654951184902
CZ-2C R/B               
1 28480U 04046B   26101.37082823  .00000127  00000+0  61909-4 0  9997
2 28480  98.1973  14.3180 0140503  58.5002 302.9820 14.27005714113168
ARIANE 5 R/B            
1 28499U 04049H   26101.44045587  .00000752  00000+0  89494-4 0  9997
2 28499  98.2675 271.1347 0082920 244.5644 114.6972 14.85332099150657
